{"spkid": "50617738", "covariance": {"epoch": "2456565.5", "labels": ["e", "q", "tp", "node", "peri", "i"], "elements": [{"units": null, "value": ".1281848014177885", "title": "eccentricity", "sigma": 1.4498217549256e-06, "name": "e", "label": "e"}, {"sigma": 1.23055970070128e-06, "name": "q", "title": "perihelion distance", "value": ".8878281655546714", "units": "au", "label": "q"}, {"name": "tp", "sigma": 0.000133684193408549, "units": "TDB", "title": "time of perihelion passage", "value": "2456697.848582298332", "label": "tp"}, {"label": "node", "value": "52.63745296050518", "title": "longitude of the ascending node", "units": "deg", "sigma": 1.55913634830217e-05, "name": "om"}, {"label": "peri", "title": "argument of perihelion", "value": "88.78457572833273", "units": "deg", "sigma": 0.000115105784901351, "name": "w"}, {"label": "i", "units": "deg", "value": "6.760083997133401", "title": "inclination", "sigma": 6.03034990050276e-05, "name": "i"}], "data": [["2.101983121055555E-12", "-1.784003416419966E-12", "1.92803633459359E-10", "1.98960654119859E-11", "1.654969553822182E-10", "8.637648137919015E-11"], ["-1.784003416419966E-12", "1.514277176990036E-12", "-1.635256113407763E-10", "-1.689884242326469E-11", "-1.404283909965164E-10", "-7.333805040895866E-11"], ["1.92803633459359E-10", "-1.635256113407763E-10", "1.787146356729432E-8", "1.819285089213817E-9", "1.532989792094408E-8", "7.930412312848201E-9"], ["1.98960654119859E-11", "-1.689884242326469E-11", "1.819285089213817E-9", "2.430906152597015E-10", "1.513031068816797E-9", "8.419356238957872E-10"], ["1.654969553822182E-10", "-1.404283909965164E-10", "1.532989792094408E-8", "1.513031068816797E-9", "1.3249341717756E-8", "6.81105047251136E-9"], ["8.637648137919015E-11", "-7.333805040895866E-11", "7.930412312848201E-9", "8.419356238957872E-10", "6.81105047251136E-9", "3.63651199224937E-9"]]}, "elements": [{"label": "e", "name": "e", "sigma": "1.4436E-6", "units": null, "title": "eccentricity", "value": ".1285646906438093"}, {"label": "a", "value": "1.018591289705669", "title": "semi-major axis", "units": "au", "sigma": "2.3554E-7", "name": "a"}, {"name": "q", "sigma": "1.2652E-6", "units": "au", "value": ".8876364156521804", "title": "perihelion distance", "label": "q"}, {"label": "i", "value": "6.756096635869896", "title": "inclination; angle with respect to x-y ecliptic plane", "units": "deg", "name": "i", "sigma": "6.0381E-5"}, {"title": "longitude of the ascending node", "value": "52.3341353136457", "units": "deg", "sigma": "2.4549E-5", "name": "om", "label": "node"}, {"value": "88.31571388922738", "title": "argument of perihelion", "units": "deg", "name": "w", "sigma": ".00011266", "label": "peri"}, {"label": "M", "sigma": ".001712", "name": "ma", "units": "deg", "title": "mean anomaly", "value": "358.2745153621469"}, {"sigma": ".0017863", "name": "tp", "title": "time of perihelion passage", "value": "2461202.299728359965", "units": "TDB", "label": "tp"}, {"sigma": ".00013024", "name": "per", "units": "d", "value": "375.4899901012712", "title": "sidereal orbital period", "label": "period"}, {"label": "n", "units": "deg/d", "value": ".9587472622183789", "title": "mean motion", "sigma": "3.3255E-7", "name": "n"}, {"sigma": "2.6582E-7", "name": "ad", "units": "au", "title": "aphelion distance", "value": "1.149546163759157", "label": "Q"}], "epoch": "2461200.5"}